IRIDIUM 155             
1 43573U 18061E   26039.59748246 -.00000007  00000+0 -97009-5 0  9991
2 43573  86.3963 110.4666 0002028  93.0400 267.1028 14.34217497394926
IRIDIUM 154             
1 43574U 18061F   26039.57845753  .00000280  00000+0  92948-4 0  9998
2 43574  86.3966 110.6019 0001999  97.5843 262.5580 14.34220740394972
IRIDIUM 163             
1 43575U 18061G   26039.55942486  .00000211  00000+0  68407-4 0  9995
2 43575  86.3963 110.5292 0002258  94.9391 265.2063 14.34219527394944
IRIDIUM 156             
1 43576U 18061H   26039.60382525  .00000115  00000+0  33951-4 0  9993
2 43576  86.3963 110.5177 0002093  90.7761 269.3674 14.34217518394940
IRIDIUM 164             
1 43577U 18061J   26039.58479701 -.00000109  00000+0 -46067-4 0  9991
2 43577  86.3962 110.5638 0001915 100.4319 259.7093 14.34216964394988
IRIDIUM 159             
1 43578U 18061K   26039.55309362  .00000297  00000+0  99113-4 0  9990
2 43578  86.3962 110.5170 0002312  98.8230 261.3228 14.34218510394948
IRIDIUM 180             
1 43922U 19002A   26039.55257506  .00000006  00000+0 -47474-5 0  9994
2 43922  86.3926  47.3537 0002189  91.0406 269.1041 14.34217447370555
IRIDIUM 176             
1 43923U 19002B   26039.49613642  .00000483  00000+0  72636-4 0  9990
2 43923  86.6051  47.3389 0002459  89.3185 270.8314 14.72253249380316
IRIDIUM 168             
1 43924U 19002C   26039.54623778  .00000014  00000+0 -19106-5 0  9993
2 43924  86.3927  47.4300 0002139  90.3468 269.7973 14.34217542370536
IRIDIUM 173             
1 43925U 19002D   26039.53355185 -.00000003  00000+0 -80716-5 0  9991
2 43925  86.3924  47.3294 0002196  86.6010 273.5437 14.34217426370516
IRIDIUM 169             
1 43926U 19002E   26039.57406793  .00000303  00000+0  92389-4 0  9997
2 43926  86.4180  78.9777 0002601  73.6782 286.4702 14.38606393371733
IRIDIUM 172             
1 43927U 19002F   26039.52720956  .00000055  00000+0  12612-4 0  9998
2 43927  86.3928  47.3393 0002319  94.4189 265.7272 14.34217925370528
IRIDIUM 175             
1 43928U 19002G   26039.35556337  .00001408  00000+0  21942-3 0  9998
2 43928  86.1539 346.5693 0001291  82.1591 277.9773 14.72244423380281
IRIDIUM 171             
1 43929U 19002H   26039.57794847  .00000079  00000+0  21021-4 0  9995
2 43929  86.3938  47.6104 0002013  87.4872 272.6554 14.34217887370523
IRIDIUM 170             
1 43930U 19002J   26039.50233056  .00000488  00000+0  73519-4 0  9993
2 43930  86.6052  47.3396 0002393  92.9478 267.2013 14.72251204380321
IRIDIUM 167             
1 43931U 19002K   26039.50183113  .00000219  00000+0  71276-4 0  9992
2 43931  86.3929  47.3712 0002054  81.0382 279.1046 14.34214561370512
IRIDIUM 181             
1 56726U 23068S   26039.56976230  .00000381  00000+0  10730-3 0  9998
2 56726  86.4502 110.5770 0002153 106.6452 253.4985 14.43311408143888
IRIDIUM 177             
1 56727U 23068T   26039.47391847  .00001860  00000+0  24123-3 0  9998
2 56727  86.1954  29.8944 0002407  88.3596 271.7901 14.80234481147329
IRIDIUM 174             
1 56728U 23068U   26039.55792082  .00000508  00000+0  76646-4 0  9990
2 56728  86.6059  47.4508 0002542  91.5134 268.6375 14.72251281147099
IRIDIUM 178             
1 56729U 23068V   26039.53062420  .00001321  00000+0  17033-3 0  9993
2 56729  86.6492  79.1426 0001889  86.0288 274.1150 14.80246455147330
IRIDIUM 179             
1 56730U 23068W   26039.59284477  .00001282  00000+0  16524-3 0  9999
2 56730  86.6743  87.7201 0002330  91.4626 268.6863 14.80235747147347
